0 TITAN 3C TRANSTAGE DEB
1 28835U 65108CM  13279.46704769 -.00000150  00000-0 -52255-3 0  4097
2 28835 027.6597 031.4140 6746684 146.9775 337.3872 02.74556359 91792
0 TITAN 3C TRANSTAGE DEB
1 28835U 65108CM  13280.57701623 -.00000126  00000-0 -17469-3 0  4100
2 28835 027.6620 030.9412 6746485 147.7561 354.4708 02.74556615 91823
0 TITAN 3C TRANSTAGE DEB
1 28835U 65108CM  13288.57441388 -.00000243  00000-0 -10729-2 0  4119
2 28835 027.6776 027.5425 6745551 153.3562 339.0579 02.74557683 92044
0 TITAN 3C TRANSTAGE DEB
1 28835U 65108CM  13292.59777266 -.00000349  00000-0 -29110-2 0  4125
2 28835 027.6856 025.8357 6744699 156.1706 355.7296 02.74558159 92153
